[{"OBJECT_NAME":"STARLINK-3715","OBJECT_ID":"2022-029AR","EPOCH":"2026-03-09T06:55:45.833952","MEAN_MOTION":15.08841874,"ECCENTRICITY":0.00012926,"INCLINATION":53.2168,"RA_OF_ASC_NODE":70.9209,"ARG_OF_PERICENTER":85.1131,"MEAN_ANOMALY":275.0008,"EPHEMERIS_TYPE":0,"CLASSIFICATION_TYPE":"U","NORAD_CAT_ID":52127,"ELEMENT_SET_NO":999,"REV_AT_EPOCH":22086,"BSTAR":0.00010768775,"MEAN_MOTION_DOT":1.426e-5,"MEAN_MOTION_DDOT":0},{"OBJECT_NAME":"PEGASUS DEB","OBJECT_ID":"1994-029AEX","EPOCH":"2026-03-09T10:21:12.559968","MEAN_MOTION":14.69785081,"ECCENTRICITY":0.01957394,"INCLINATION":81.9702,"RA_OF_ASC_NODE":117.9188,"ARG_OF_PERICENTER":51.5385,"MEAN_ANOMALY":310.3202,"EPHEMERIS_TYPE":0,"CLASSIFICATION_TYPE":"U","NORAD_CAT_ID":39312,"ELEMENT_SET_NO":999,"REV_AT_EPOCH":67444,"BSTAR":0.0006881266,"MEAN_MOTION_DOT":5.551e-5,"MEAN_MOTION_DDOT":0}]
